0 XW-2D
1 40907U 15049J   23001.46624576  .00010096  00000-0  43678-3 0  9992
2 40907  97.4944   8.8321 0013404  29.6241 130.3343 15.22556864403061
0 NAYIF 1
1 42017U 17008BX  23001.45240141  .00038575  00000-0  85807-3 0  9996
2 42017  97.2445  70.4348 0002647 248.1247 111.9719 15.43548239327511
0 XW-2A
1 40903U 15049E   23001.41948348  .00059343  00000-0  57236-3 0  9992
2 40903  97.1495  66.3390 0008257 101.8327  24.5667 15.66278342410092
0 XW-2C
1 40906U 15049H   23001.40766510  .00008680  00000-0  38748-3 0  9998
2 40906  97.4957   8.5796 0014184  33.8936  75.8294 15.21522584402991
0 SAUDISAT 1C
1 27607U 02058C   23001.39532289  .00001467  00000-0  21936-3 0  9996
2 27607  64.5553  56.0086 0080290 257.0147 102.1982 14.76537557 77807
0 ES'HAIL 2
1 43700U 18090A   23001.34980128  .00000153  00000-0  00000+0 0  9991
2 43700   0.0244  26.1005 0001740 286.1339 300.2058  1.00270822 15257
0 XW-3 (CAS 9)
1 50466U 21131B   23001.33394984  .00000378  00000-0  13795-3 0  9994
2 50466  98.5667  83.3521 0003512 277.2108  82.8680 14.38608095 53367
0 DIWATA 2B
1 43678U 18084H   23001.31256664  .00001035  00000-0  10631-3 0  9991
2 43678  97.9959 142.2967 0009856   1.2152 358.9076 14.92595672227366
0 NEXUS
1 43937U 19003F   23001.30727952  .00024835  00000-0  68704-3 0  9990
2 43937  97.1110  32.4383 0018211 157.9393 202.2640 15.36826631220292
0 OBJECT C
1 54684U 22167C   23001.29875054  .00008065  00000-0  51181-3 0  9999
2 54684  97.5381 140.8929 0014432 184.5881  10.9578 15.09063396  3469
0 TEVEL 2
1 51069U 22002CP  23001.27289727  .00011858  00000-0  58938-3 0  9996
2 51069  97.4581  70.0619 0010302  97.1732 341.3166 15.17755999 53386
0 TEVEL 3
1 50988U 22002E   23001.27026034  .00011746  00000-0  58376-3 0  9997
2 50988  97.4591  70.0803 0010480  97.3702 336.6790 15.17758448 53389
0 ISS (ZARYA)
1 25544U 98067A   23001.26991367  .00015968  00000-0  28903-3 0  9993
2 25544  51.6448  75.3411 0005204 209.5406 257.0907 15.49811030375904
0 LILACSAT 2
1 40908U 15049K   23001.25168030  .00004692  00000-0  23910-3 0  9990
2 40908  97.5224   5.1181 0016287  54.3268   2.4315 15.17152339402468
0 OSCAR 7
1  7530U 74089B   23001.24708656 -.00000021  00000-0  15542-3 0  9991
2  7530 101.9303 346.9161 0012374  23.8621  47.1478 12.53659755202499
0 CSS (TIANHE-1)
1 48274U 21035A   23001.24356435  .00011200  00000-0  13820-3 0  9995
2 48274  41.4768  93.3086 0005879 252.6880 317.4287 15.60047827 95721
0 ZHUHAI-1 01
1 42761U 17034D   23001.24350891  .00006911  00000-0  38731-3 0  9995
2 42761  43.0183 319.8342 0009095 101.4392  40.1713 15.13850085306319
0 XW-2E
1 40909U 15049L   23001.24055734  .00016603  00000-0  60838-3 0  9991
2 40909  97.4625  13.7088 0010951   8.4995  52.6835 15.28023811403563
0 XW-2B
1 40911U 15049N   23001.23907277  .00009796  00000-0  42585-3 0  9995
2 40911  97.4932   9.1318 0013154  32.0092  96.6087 15.22404387402911
0 XW-2F
1 40910U 15049M   23001.23832470  .00016500  00000-0  61474-3 0  9995
2 40910  97.4716  12.8939 0012045   8.8091  51.6642 15.27464625403328
0 JAS 2
1 24278U 96046B   23001.23034043 -.00000011  00000-0  21421-4 0  9990
2 24278  98.5146   2.6711 0351068 129.9720 233.2814 13.53126728302600
0 FUNCUBE 1
1 39444U 13066AE  23001.16329730  .00003497  00000-0  40946-3 0  9996
2 39444  97.6506 331.5683 0056876 102.5888 258.1696 14.84485544491437
0 TEVEL 5
1 50998U 22002Q   23001.15447082  .00012328  00000-0  60236-3 0  9990
2 50998  97.4578  70.1911 0011864  94.7764 317.2734 15.18325976 53382
0 TEVEL 6
1 50999U 22002R   23001.15363698  .00012322  00000-0  60201-3 0  9997
2 50999  97.4577  70.1865 0011660  93.2436 319.8709 15.18333046 53381
0 TEVEL 4
1 51063U 22002CH  23001.15204929  .00011864  00000-0  59088-3 0  9992
2 51063  97.4597  69.9768 0010453  97.3360 322.5094 15.17680455 53368
0 TEVEL 7
1 51062U 22002CG  23001.14939586  .00011904  00000-0  59256-3 0  9996
2 51062  97.4598  69.9813 0010333  96.2124 320.4849 15.17700883 53365
0 ZHUHAI-1 02
1 42759U 17034B   23001.14889434  .00006908  00000-0  38831-3 0  9998
2 42759  43.0182 321.7206 0008773 100.5863  16.7312 15.13746658306292
0 TEVEL 8
1 50989U 22002F   23001.14757997  .00011803  00000-0  58762-3 0  9996
2 50989  97.4602  69.9997 0010224  95.8379 322.1313 15.17699283 53363
0 TEVEL 1
1 51013U 22002AF  23001.14060088  .00011722  00000-0  58314-3 0  9996
2 51013  97.4585  69.9161 0010413  97.8347 316.7570 15.17725056 53364
0 AO-95
1 43770U 18099N   23001.11763730  .00004715  00000-0  40782-3 0  9993
2 43770  97.5978  67.2043 0012861 338.2790  21.7885 14.97580899222580
0 UVSQ-SAT
1 47438U 21006AB  23001.11329584  .00011224  00000-0  54619-3 0  9992
2 47438  97.4123  61.1018 0010082 313.5698  46.4698 15.18510122107244
0 EYESAT A
1 22825U 93061C   23001.08179248  .00000116  00000-0  62549-4 0  9991
2 22825  98.8657  41.0806 0008276 188.8059 171.2979 14.30223553526675
0 LAPAN A2
1 40931U 15052B   23001.04618646  .00000997  00000-0  49384-4 0  9998
2 40931   5.9980 199.4083 0012208  86.3956 273.7792 14.76956937392608
0 AO-92
1 43137U 18004AC  22365.75022520  .00019396  00000-0  58467-3 0  9993
2 43137  97.3505  79.4984 0007682  30.7739 329.3953 15.34325685276531
0 JY1SAT
1 43803U 18099AX  22365.70416183  .00004686  00000-0  39756-3 0  9990
2 43803  97.5965  67.6552 0013728 327.3671  32.6702 14.98328550222597
0 BREEZE-KM R/B
1 44909U 19096E   22365.67865788  .00000002  00000-0 -31605-4 0  9996
2 44909  82.5217  99.2571 0216984 218.3658 140.1841 12.79717385140733
0 AO-91
1 43017U 17073E   22365.64025599  .00008038  00000-0  59209-3 0  9998
2 43017  97.6525 251.6924 0241218 261.2159  96.1672 14.83176136276325
0 MT-CUBE-2
1 53106U 22080B   22354.08419093 -.00000003  00000-0  00000+0 0  9990
2 53106  70.1702  21.9397 0008914 226.9685 182.2049  6.42557326 10248
